[
    {
        "OBJECT_NAME": "SL-14 R/B",
        "OBJECT_ID": "1979-011B",
        "EPOCH": "2026-06-27T18:31:25.057056",
        "MEAN_MOTION": 14.92023504,
        "ECCENTRICITY": 0.0017201,
        "INCLINATION": 82.5238,
        "RA_OF_ASC_NODE": 352.1078,
        "ARG_OF_PERICENTER": 53.2142,
        "MEAN_ANOMALY": 307.0653,
        "EPHEMERIS_TYPE": 0,
        "CLASSIFICATION_TYPE": "U",
        "NORAD_CAT_ID": 11267,
        "ELEMENT_SET_NO": 999,
        "REV_AT_EPOCH": 54519,
        "BSTAR": 4.8058e-05,
        "MEAN_MOTION_DOT": 5.14e-06,
        "MEAN_MOTION_DDOT": 0
    },
    {
        "OBJECT_NAME": "SL-8 R/B",
        "OBJECT_ID": "1979-089B",
        "EPOCH": "2026-06-27T14:36:11.425248",
        "MEAN_MOTION": 14.42408361,
        "ECCENTRICITY": 0.0015308,
        "INCLINATION": 74.0685,
        "RA_OF_ASC_NODE": 247.5663,
        "ARG_OF_PERICENTER": 27.5697,
        "MEAN_ANOMALY": 332.6268,
        "EPHEMERIS_TYPE": 0,
        "CLASSIFICATION_TYPE": "U",
        "NORAD_CAT_ID": 11574,
        "ELEMENT_SET_NO": 999,
        "REV_AT_EPOCH": 45195,
        "BSTAR": 6.7365e-05,
        "MEAN_MOTION_DOT": 1.97e-06,
        "MEAN_MOTION_DDOT": 0
    },
    {
        "OBJECT_NAME": "SL-14 R/B",
        "OBJECT_ID": "1980-005B",
        "EPOCH": "2026-06-27T18:57:59.243328",
        "MEAN_MOTION": 14.91036566,
        "ECCENTRICITY": 0.0016452,
        "INCLINATION": 82.5132,
        "RA_OF_ASC_NODE": 202.7822,
        "ARG_OF_PERICENTER": 151.1457,
        "MEAN_ANOMALY": 209.0676,
        "EPHEMERIS_TYPE": 0,
        "CLASSIFICATION_TYPE": "U",
        "NORAD_CAT_ID": 11672,
        "ELEMENT_SET_NO": 999,
        "REV_AT_EPOCH": 49289,
        "BSTAR": 4.3404e-05,
        "MEAN_MOTION_DOT": 4.56e-06,
        "MEAN_MOTION_DDOT": 0
    },
    {
        "OBJECT_NAME": "SL-8 R/B",
        "OBJECT_ID": "1981-003B",
        "EPOCH": "2026-06-27T12:38:14.352864",
        "MEAN_MOTION": 15.14535608,
        "ECCENTRICITY": 0.0250615,
        "INCLINATION": 82.9354,
        "RA_OF_ASC_NODE": 188.1632,
        "ARG_OF_PERICENTER": 155.0256,
        "MEAN_ANOMALY": 206.3356,
        "EPHEMERIS_TYPE": 0,
        "CLASSIFICATION_TYPE": "U",
        "NORAD_CAT_ID": 12139,
        "ELEMENT_SET_NO": 999,
        "REV_AT_EPOCH": 33128,
        "BSTAR": 0.00035637,
        "MEAN_MOTION_DOT": 0.00014769,
        "MEAN_MOTION_DDOT": 0
    },
    {
        "OBJECT_NAME": "SL-3 R/B",
        "OBJECT_ID": "1981-046B",
        "EPOCH": "2026-06-27T19:34:41.424672",
        "MEAN_MOTION": 15.44417425,
        "ECCENTRICITY": 0.0017369,
        "INCLINATION": 81.2292,
        "RA_OF_ASC_NODE": 157.2634,
        "ARG_OF_PERICENTER": 1.491,
        "MEAN_ANOMALY": 358.6382,
        "EPHEMERIS_TYPE": 0,
        "CLASSIFICATION_TYPE": "U",
        "NORAD_CAT_ID": 12465,
        "ELEMENT_SET_NO": 999,
        "REV_AT_EPOCH": 45541,
        "BSTAR": 0.00025355,
        "MEAN_MOTION_DOT": 0.00011818,
        "MEAN_MOTION_DDOT": 0
    },
    {
        "OBJECT_NAME": "SL-3 R/B",
        "OBJECT_ID": "1981-103B",
        "EPOCH": "2026-06-27T20:00:24.768000",
        "MEAN_MOTION": 15.22367399,
        "ECCENTRICITY": 0.0011403,
        "INCLINATION": 81.1589,
        "RA_OF_ASC_NODE": 84.1257,
        "ARG_OF_PERICENTER": 276.1075,
        "MEAN_ANOMALY": 83.8857,
        "EPHEMERIS_TYPE": 0,
        "CLASSIFICATION_TYPE": "U",
        "NORAD_CAT_ID": 12904,
        "ELEMENT_SET_NO": 999,
        "REV_AT_EPOCH": 98998,
        "BSTAR": 0.00018363,
        "MEAN_MOTION_DOT": 4.269e-05,
        "MEAN_MOTION_DDOT": 0
    },
    {
        "OBJECT_NAME": "SL-3 R/B",
        "OBJECT_ID": "1982-013B",
        "EPOCH": "2026-06-27T20:49:11.441856",
        "MEAN_MOTION": 15.22852219,
        "ECCENTRICITY": 0.0022167,
        "INCLINATION": 81.1735,
        "RA_OF_ASC_NODE": 31.521,
        "ARG_OF_PERICENTER": 164.779,
        "MEAN_ANOMALY": 195.4114,
        "EPHEMERIS_TYPE": 0,
        "CLASSIFICATION_TYPE": "U",
        "NORAD_CAT_ID": 13068,
        "ELEMENT_SET_NO": 999,
        "REV_AT_EPOCH": 42111,
        "BSTAR": 0.00017303,
        "MEAN_MOTION_DOT": 4.103e-05,
        "MEAN_MOTION_DDOT": 0
    },
    {
        "OBJECT_NAME": "SL-3 R/B",
        "OBJECT_ID": "1982-039B",
        "EPOCH": "2026-06-27T19:58:07.696128",
        "MEAN_MOTION": 15.10604142,
        "ECCENTRICITY": 0.0027725,
        "INCLINATION": 81.1478,
        "RA_OF_ASC_NODE": 88.7876,
        "ARG_OF_PERICENTER": 319.6695,
        "MEAN_ANOMALY": 40.2473,
        "EPHEMERIS_TYPE": 0,
        "CLASSIFICATION_TYPE": "U",
        "NORAD_CAT_ID": 13154,
        "ELEMENT_SET_NO": 999,
        "REV_AT_EPOCH": 39826,
        "BSTAR": 0.00020717,
        "MEAN_MOTION_DOT": 3.475e-05,
        "MEAN_MOTION_DDOT": 0
    },
    {
        "OBJECT_NAME": "SL-3 R/B",
        "OBJECT_ID": "1982-079B",
        "EPOCH": "2026-06-27T19:20:05.124768",
        "MEAN_MOTION": 15.25873429,
        "ECCENTRICITY": 0.002448,
        "INCLINATION": 81.1463,
        "RA_OF_ASC_NODE": 62.9275,
        "ARG_OF_PERICENTER": 150.0283,
        "MEAN_ANOMALY": 210.2359,
        "EPHEMERIS_TYPE": 0,
        "CLASSIFICATION_TYPE": "U",
        "NORAD_CAT_ID": 13403,
        "ELEMENT_SET_NO": 999,
        "REV_AT_EPOCH": 39448,
        "BSTAR": 0.00017549,
        "MEAN_MOTION_DOT": 4.559e-05,
        "MEAN_MOTION_DDOT": 0
    },
    {
        "OBJECT_NAME": "SL-14 R/B",
        "OBJECT_ID": "1982-092B",
        "EPOCH": "2026-06-27T21:04:50.861280",
        "MEAN_MOTION": 14.86754395,
        "ECCENTRICITY": 0.0018902,
        "INCLINATION": 82.5674,
        "RA_OF_ASC_NODE": 38.2986,
        "ARG_OF_PERICENTER": 297.8169,
        "MEAN_ANOMALY": 72.4476,
        "EPHEMERIS_TYPE": 0,
        "CLASSIFICATION_TYPE": "U",
        "NORAD_CAT_ID": 13553,
        "ELEMENT_SET_NO": 999,
        "REV_AT_EPOCH": 34530,
        "BSTAR": 3.8987e-05,
        "MEAN_MOTION_DOT": 3.72e-06,
        "MEAN_MOTION_DDOT": 0
    },
    {
        "OBJECT_NAME": "SL-3 R/B",
        "OBJECT_ID": "1983-010B",
        "EPOCH": "2026-06-27T20:16:04.308384",
        "MEAN_MOTION": 15.49503761,
        "ECCENTRICITY": 0.0014774,
        "INCLINATION": 81.1009,
        "RA_OF_ASC_NODE": 226.8371,
        "ARG_OF_PERICENTER": 26.274,
        "MEAN_ANOMALY": 333.9252,
        "EPHEMERIS_TYPE": 0,
        "CLASSIFICATION_TYPE": "U",
        "NORAD_CAT_ID": 13819,
        "ELEMENT_SET_NO": 999,
        "REV_AT_EPOCH": 37498,
        "BSTAR": 0.00023393,
        "MEAN_MOTION_DOT": 0.00012973,
        "MEAN_MOTION_DDOT": 0
    },
    {
        "OBJECT_NAME": "SL-3 R/B",
        "OBJECT_ID": "1983-075B",
        "EPOCH": "2026-06-27T18:52:11.169696",
        "MEAN_MOTION": 15.40675846,
        "ECCENTRICITY": 0.0020453,
        "INCLINATION": 97.6099,
        "RA_OF_ASC_NODE": 187.7245,
        "ARG_OF_PERICENTER": 189.5693,
        "MEAN_ANOMALY": 170.5167,
        "EPHEMERIS_TYPE": 0,
        "CLASSIFICATION_TYPE": "U",
        "NORAD_CAT_ID": 14208,
        "ELEMENT_SET_NO": 999,
        "REV_AT_EPOCH": 34709,
        "BSTAR": 0.00023792,
        "MEAN_MOTION_DOT": 9.687e-05,
        "MEAN_MOTION_DDOT": 0
    },
    {
        "OBJECT_NAME": "COSMOS 1536",
        "OBJECT_ID": "1984-013A",
        "EPOCH": "2026-06-27T14:16:14.037024",
        "MEAN_MOTION": 15.25156468,
        "ECCENTRICITY": 0.0012615,
        "INCLINATION": 82.5441,
        "RA_OF_ASC_NODE": 358.4776,
        "ARG_OF_PERICENTER": 254.0475,
        "MEAN_ANOMALY": 105.9373,
        "EPHEMERIS_TYPE": 0,
        "CLASSIFICATION_TYPE": "U",
        "NORAD_CAT_ID": 14699,
        "ELEMENT_SET_NO": 999,
        "REV_AT_EPOCH": 28936,
        "BSTAR": 0.00022903,
        "MEAN_MOTION_DOT": 5.785e-05,
        "MEAN_MOTION_DDOT": 0
    },
    {
        "OBJECT_NAME": "SL-14 R/B",
        "OBJECT_ID": "1984-027B",
        "EPOCH": "2026-06-27T20:29:13.974144",
        "MEAN_MOTION": 14.86067478,
        "ECCENTRICITY": 0.0017185,
        "INCLINATION": 82.542,
        "RA_OF_ASC_NODE": 141.7146,
        "ARG_OF_PERICENTER": 333.4613,
        "MEAN_ANOMALY": 26.5722,
        "EPHEMERIS_TYPE": 0,
        "CLASSIFICATION_TYPE": "U",
        "NORAD_CAT_ID": 14820,
        "ELEMENT_SET_NO": 999,
        "REV_AT_EPOCH": 26399,
        "BSTAR": 4.6793e-05,
        "MEAN_MOTION_DOT": 4.35e-06,
        "MEAN_MOTION_DDOT": 0
    },
    {
        "OBJECT_NAME": "SL-8 R/B",
        "OBJECT_ID": "1985-006B",
        "EPOCH": "2026-06-27T19:14:02.616288",
        "MEAN_MOTION": 14.37838947,
        "ECCENTRICITY": 0.0019113,
        "INCLINATION": 74.0459,
        "RA_OF_ASC_NODE": 58.5322,
        "ARG_OF_PERICENTER": 304.0157,
        "MEAN_ANOMALY": 124.216,
        "EPHEMERIS_TYPE": 0,
        "CLASSIFICATION_TYPE": "U",
        "NORAD_CAT_ID": 15483,
        "ELEMENT_SET_NO": 999,
        "REV_AT_EPOCH": 16985,
        "BSTAR": 6.2217e-05,
        "MEAN_MOTION_DOT": 1.61e-06,
        "MEAN_MOTION_DDOT": 0
    },
    {
        "OBJECT_NAME": "SL-12 R/B(2)",
        "OBJECT_ID": "1985-042D",
        "EPOCH": "2026-06-27T21:01:56.182944",
        "MEAN_MOTION": 14.22007723,
        "ECCENTRICITY": 0.0036848,
        "INCLINATION": 71.1065,
        "RA_OF_ASC_NODE": 214.9329,
        "ARG_OF_PERICENTER": 311.7522,
        "MEAN_ANOMALY": 220.9796,
        "EPHEMERIS_TYPE": 0,
        "CLASSIFICATION_TYPE": "U",
        "NORAD_CAT_ID": 15772,
        "ELEMENT_SET_NO": 999,
        "REV_AT_EPOCH": 13005,
        "BSTAR": 7.2538e-05,
        "MEAN_MOTION_DOT": 1.14e-06,
        "MEAN_MOTION_DDOT": 0
    }
]